NORAD_CAT_ID,OBJECT_NAME,OBJECT_TYPE,EPOCH,MEAN_MOTION,ECCENTRICITY,INCLINATION,RA_OF_ASC_NODE,ARG_OF_PERICENTER,MEAN_ANOMALY,BSTAR,MEAN_MOTION_DOT,MEAN_MOTION_DDOT,TLE_LINE0,TLE_LINE1,TLE_LINE2,SEMIMAJOR_AXIS,PERIOD,APOGEE,PERIGEE,DECAYED
56459.0,STARLINK-6048,PAYLOAD,2023-09-28 08:10:39,14.98323429,0.0002731,70.0014,236.7951,265.2326,94.8521,-4.388e-05,-6.16e-06,0.0,0 STARLINK-6048,1 56459U 23064M   23271.34072994 -.00000616  00000-0 -43880-4 0  9999,2 56459  70.0014 236.7951 0002731 265.2326  94.8521 14.98323429 21439,6950.213,96.107,573.976,570.18,0.0
56459.0,STARLINK-6048,PAYLOAD,2023-09-28 20:59:43,14.98330937,0.0002771,70.0011,235.4478,268.222,91.8621,3.9439e-05,3.78e-06,0.0,0 STARLINK-6048,1 56459U 23064M   23271.87480377  .00000378  00000-0  39439-4 0  9993,2 56459  70.0011 235.4478 0002771 268.2220  91.8621 14.98330937 21515,6950.19,96.107,573.981,570.129,0.0
56459.0,STARLINK-6048,PAYLOAD,2023-09-28 22:35:51,14.9833104,0.000277,70.0011,235.2796,268.0316,92.0526,3.9841e-05,3.82e-06,0.0,0 STARLINK-6048,1 56459U 23064M   23271.94156363  .00000382  00000-0  39841-4 0  9998,2 56459  70.0011 235.2796 0002770 268.0316  92.0526 14.98331040 21882,6950.19,96.107,573.98,570.129,0.0
56459.0,STARLINK-6048,PAYLOAD,2023-09-29 08:12:39,14.98335539,0.0002747,70.0013,234.2695,268.8621,91.2223,8.6527e-05,9.4e-06,0.0,0 STARLINK-6048,1 56459U 23064M   23272.34211904  .00000940  00000-0  86527-4 0  9999,2 56459  70.0013 234.2695 0002747 268.8621  91.2223 14.98335539 21581,6950.176,96.107,573.95,570.132,0.0
56459.0,STARLINK-6048,PAYLOAD,2023-09-30 03:26:15,14.98331695,0.0002813,70.0012,232.2493,265.1296,94.9542,9.9032e-05,1.089e-05,0.0,0 STARLINK-6048,1 56459U 23064M   23273.14323876  .00001089  00000-0  99032-4 0  9990,2 56459  70.0012 232.2493 0002813 265.1296  94.9542 14.98331695 22063,6950.188,96.107,574.008,570.098,0.0
56459.0,STARLINK-6048,PAYLOAD,2023-09-30 05:02:23,14.98332352,0.0002795,70.0012,232.0811,264.5745,95.5095,0.00010508,1.161e-05,0.0,0 STARLINK-6048,1 56459U 23064M   23273.20999802  .00001161  00000-0  10508-3 0  9996,2 56459  70.0012 232.0811 0002795 264.5745  95.5095 14.98332352 21718,6950.186,96.107,573.993,570.108,0.0
56459.0,STARLINK-6048,PAYLOAD,2023-09-30 14:39:12,14.98326825,0.0002186,70.0033,231.0691,291.3757,68.7169,6.2735e-06,-1.8e-07,0.0,0 STARLINK-6048,1 56459U 23064M   23273.61056616 -.00000018  00000-0  62735-5 0  9990,2 56459  70.0033 231.0691 0002186 291.3757  68.7169 14.98326825 22130,6950.203,96.107,573.587,570.548,0.0
56459.0,STARLINK-6048,PAYLOAD,2023-10-01 06:40:33,14.98330418,0.0002842,70.001,229.3882,270.2527,89.8306,-7.688e-05,-1.01e-05,0.0,0 STARLINK-6048,1 56459U 23064M   23274.27816392 -.00001010  00000-0 -76880-4 0  9997,2 56459  70.0010 229.3882 0002842 270.2527  89.8306 14.98330418 21877,6950.192,96.107,574.032,570.081,0.0
56459.0,STARLINK-6048,PAYLOAD,2023-10-01 14:41:13,14.98331565,0.0002793,70.0008,228.548,273.5283,86.5556,-0.00015129,-1.898e-05,0.0,0 STARLINK-6048,1 56459U 23064M   23274.61196532 -.00001898  00000-0 -15129-3 0  9994,2 56459  70.0008 228.5480 0002793 273.5283  86.5556 14.98331565 22280,6950.188,96.107,573.994,570.112,0.0
56459.0,STARLINK-6048,PAYLOAD,2023-10-01 21:05:46,14.98329406,0.0002828,70.001,227.8739,269.9963,90.0872,-7.1514e-05,-9.46e-06,0.0,0 STARLINK-6048,1 56459U 23064M   23274.87900466 -.00000946  00000-0 -71514-4 0  9995,2 56459  70.0010 227.8739 0002828 269.9963  90.0872 14.98329406 21961,6950.195,96.107,574.025,570.094,0.0
56459.0,STARLINK-6048,PAYLOAD,2023-10-02 08:18:41,14.98336024,0.0002763,70.0013,226.6953,267.9743,92.1099,1.2372e-05,5.5e-07,0.0,0 STARLINK-6048,1 56459U 23064M   23275.34631782  .00000055  00000-0  12372-4 0  9996,2 56459  70.0013 226.6953 0002763 267.9743  92.1099 14.98336024 22397,6950.174,96.107,573.96,570.119,0.0
56459.0,STARLINK-6048,PAYLOAD,2023-10-02 21:07:46,14.9832605,0.0002896,70.0015,225.3488,272.6594,87.4234,0.00010812,1.197e-05,0.0,0 STARLINK-6048,1 56459U 23064M   23275.88040094  .00001197  00000-0  10812-3 0  9999,2 56459  70.0015 225.3488 0002896 272.6594  87.4234 14.98326050 22477,6950.205,96.107,574.083,570.057,0.0
56459.0,STARLINK-6048,PAYLOAD,2023-10-03 06:44:34,14.98330933,0.0002711,70.0015,224.3384,267.8715,92.2134,0.0001982,2.273e-05,0.0,0 STARLINK-6048,1 56459U 23064M   23276.28095560  .00002273  00000-0  19820-3 0  9996,2 56459  70.0015 224.3384 0002711 267.8715  92.2134 14.98330933 22533,6950.19,96.107,573.939,570.171,0.0
56459.0,STARLINK-6048,PAYLOAD,2023-10-04 06:46:36,14.98328197,0.0002617,70.0022,221.8171,259.8464,100.24,-3.7065e-05,-5.35e-06,0.0,0 STARLINK-6048,1 56459U 23064M   23277.28236383 -.00000535  00000-0 -37065-4 0  9990,2 56459  70.0022 221.8171 0002617 259.8464 100.2400 14.98328197 22685,6950.198,96.107,573.882,570.245,0.0
56459.0,STARLINK-6048,PAYLOAD,2023-10-04 13:11:08,14.98327494,0.0002665,70.0019,221.1426,261.8538,98.2319,-4.2933e-05,-6.05e-06,0.0,0 STARLINK-6048,1 56459U 23064M   23277.54940438 -.00000605  00000-0 -42933-4 0  9990,2 56459  70.0019 221.1426 0002665 261.8538  98.2319 14.98327494 22364,6950.201,96.107,573.918,570.213,0.0
56459.0,STARLINK-6048,PAYLOAD,2023-10-04 21:11:48,14.98322927,0.0003051,70.0023,220.2994,266.7218,93.3592,0.00015485,1.755e-05,0.0,0 STARLINK-6048,1 56459U 23064M   23277.88320109  .00001755  00000-0  15485-3 0  9990,2 56459  70.0023 220.2994 0003051 266.7218  93.3592 14.98322927 22419,6950.215,96.107,574.2,569.959,0.0
56459.0,STARLINK-6048,PAYLOAD,2023-10-05 05:12:28,14.9833904,0.0002763,70.0016,219.4587,264.7401,95.3443,2.8866e-05,2.52e-06,0.0,0 STARLINK-6048,1 56459U 23064M   23278.21699407  .00000252  00000-0  28866-4 0  9997,2 56459  70.0016 219.4587 0002763 264.7401  95.3443 14.98339040 22826,6950.165,96.106,573.95,570.11,0.0
56459.0,STARLINK-6048,PAYLOAD,2023-10-05 13:13:08,14.98336052,0.0002654,70.0022,218.6168,267.7712,92.3143,-2.9882e-05,-4.49e-06,0.0,0 STARLINK-6048,1 56459U 23064M   23278.55079596 -.00000449  00000-0 -29882-4 0  9994,2 56459  70.0022 218.6168 0002654 267.7712  92.3143 14.98336052 22516,6950.174,96.107,573.884,570.195,0.0
56459.0,STARLINK-6048,PAYLOAD,2023-10-05 21:13:48,14.98332946,0.0003185,70.0012,217.7737,270.3672,89.7122,0.00013246,1.488e-05,0.0,0 STARLINK-6048,1 56459U 23064M   23278.88459107  .00001488  00000-0  13246-3 0  9998,2 56459  70.0012 217.7737 0003185 270.3672  89.7122 14.98332946 22562,6950.184,96.107,574.262,569.835,0.0
56459.0,STARLINK-6048,PAYLOAD,2023-10-06 05:14:27,14.98346686,0.000296,70.0013,216.9328,269.8548,90.2271,0.00025365,2.936e-05,0.0,0 STARLINK-6048,1 56459U 23064M   23279.21837723  .00002936  00000-0  25365-3 0  9994,2 56459  70.0013 216.9328 0002960 269.8548  90.2271 14.98346686 22978,6950.141,96.106,574.064,569.949,0.0
56459.0,STARLINK-6048,PAYLOAD,2023-10-06 13:15:09,14.98332513,0.000268,70.0023,216.0926,274.4289,85.6564,3.1915e-05,2.88e-06,0.0,0 STARLINK-6048,1 56459U 23064M   23279.55219092  .00000288  00000-0  31915-4 0  9991,2 56459  70.0023 216.0926 0002680 274.4289  85.6564 14.98332513 22660,6950.185,96.107,573.913,570.187,0.0
56459.0,STARLINK-6048,PAYLOAD,2023-10-06 21:15:51,14.98313314,0.0002768,70.0027,215.2513,272.526,87.5582,-0.00025307,-3.11e-05,0.0,0 STARLINK-6048,1 56459U 23064M   23279.88601122 -.00003110  00000-0 -25307-3 0  9992,2 56459  70.0027 215.2513 0002768 272.5260  87.5582 14.98313314 22717,6950.244,96.108,574.033,570.186,0.0
56459.0,STARLINK-6048,PAYLOAD,2023-10-07 02:04:15,14.9831925,0.000286,70.0018,214.7458,268.0536,92.0296,-0.00022487,-2.774e-05,0.0,0 STARLINK-6048,1 56459U 23064M   23280.08628768 -.00002774  00000-0 -22487-3 0  9992,2 56459  70.0018 214.7458 0002860 268.0536  92.0296 14.98319250 23100,6950.226,96.108,574.079,570.103,0.0
56459.0,STARLINK-6048,PAYLOAD,2023-10-07 13:17:11,14.98326639,0.0002818,70.0022,213.5669,268.6479,91.4357,-0.00020613,-2.551e-05,0.0,0 STARLINK-6048,1 56459U 23064M   23280.55360424 -.00002551  00000-0 -20613-3 0  9998,2 56459  70.0022 213.5669 0002818 268.6479  91.4357 14.98326639 22818,6950.203,96.107,574.027,570.11,0.0
56459.0,STARLINK-6048,PAYLOAD,2023-10-07 19:41:43,14.98330919,0.0002858,70.002,212.8945,273.2247,86.8585,-0.00015264,-1.914e-05,0.0,0 STARLINK-6048,1 56459U 23064M   23280.82064097 -.00001914  00000-0 -15264-3 0  9993,2 56459  70.0020 212.8945 0002858 273.2247  86.8585 14.98330919 23216,6950.19,96.107,574.041,570.069,0.0
56459.0,STARLINK-6048,PAYLOAD,2023-10-07 21:17:51,14.98331016,0.0002886,70.0021,212.7261,272.7349,87.348,-0.00013354,-1.686e-05,0.0,0 STARLINK-6048,1 56459U 23064M   23280.88740023 -.00001686  00000-0 -13354-3 0  9993,2 56459  70.0021 212.7261 0002886 272.7349  87.3480 14.98331016 22864,6950.19,96.107,574.061,570.049,0.0
56459.0,STARLINK-6048,PAYLOAD,2023-10-08 02:06:15,14.98337166,0.0002914,70.0018,212.22,269.4038,90.6787,-6.7475e-05,-8.98e-06,0.0,0 STARLINK-6048,1 56459U 23064M   23281.08767410 -.00000898  00000-0 -67475-4 0  9993,2 56459  70.0018 212.2200 0002914 269.4038  90.6787 14.98337166 23251,6950.171,96.107,574.061,570.01,0.0
56459.0,STARLINK-6048,PAYLOAD,2023-10-08 06:54:38,14.98342656,0.00028,70.0021,211.7153,267.3793,92.7046,2.4911e-06,-6.3e-07,0.0,0 STARLINK-6048,1 56459U 23064M   23281.28794806 -.00000063  00000-0  24911-5 0  9996,2 56459  70.0021 211.7153 0002800 267.3793  92.7046 14.98342656 23289,6950.154,96.106,573.965,570.073,0.0
56459.0,STARLINK-6048,PAYLOAD,2023-10-08 13:19:11,14.98334878,0.0002717,70.0029,211.0438,280.1393,79.9459,-8.3759e-05,-1.092e-05,0.0,0 STARLINK-6048,1 56459U 23064M   23281.55499562 -.00001092  00000-0 -83759-4 0  9995,2 56459  70.0029 211.0438 0002717 280.1393  79.9459 14.98334878 22968,6950.178,96.107,573.931,570.154,0.0
56459.0,STARLINK-6048,PAYLOAD,2023-10-08 18:07:35,14.98316398,0.0003058,70.0019,210.5381,270.6523,89.4285,0.00021847,2.514e-05,0.0,0 STARLINK-6048,1 56459U 23064M   23281.75527765  .00002514  00000-0  21847-3 0  9991,2 56459  70.0019 210.5381 0003058 270.6523  89.4285 14.98316398 23350,6950.235,96.108,574.225,569.975,0.0
